OBJECT_NAME,OBJECT_ID,EPOCH,MEAN_MOTION,ECCENTRICITY,INCLINATION,RA_OF_ASC_NODE,ARG_OF_PERICENTER,MEAN_ANOMALY,EPHEMERIS_TYPE,CLASSIFICATION_TYPE,NORAD_CAT_ID,ELEMENT_SET_NO,REV_AT_EPOCH,BSTAR,MEAN_MOTION_DOT,MEAN_MOTION_DDOT
INTELSAT 902 (IS-902),2001-039A,2026-07-20T04:10:58.586880,1.00270817,.00041431,6.1970,71.3755,48.2762,190.9431,0,U,26900,999,9102,0,-.289E-5,0
INTELSAT 904 (IS-904),2002-007A,2026-07-19T09:36:20.104416,1.00270287,.00054385,6.9984,68.7946,27.8388,313.1487,0,U,27380,999,5208,0,-.234E-5,0
DIRECTV 5 (TEMPO 1),2002-023A,2026-07-20T06:29:09.103200,1.00271977,.00030739,4.9603,74.8965,38.8010,171.5267,0,U,27426,999,8845,0,-.62E-6,0
INTELSAT 905 (IS-905),2002-027A,2026-07-20T02:32:12.510240,1.00273493,.00036114,6.8340,69.3997,49.8706,79.4617,0,U,27438,999,5169,0,.87E-6,0
GALAXY 3C (G-3C),2002-030A,2026-07-20T05:50:14.373024,1.00271237,.00017534,3.8177,77.5506,30.2607,182.9246,0,U,27445,999,4682,0,-.157E-5,0
INTELSAT 906 (IS-906),2002-041A,2026-07-20T04:52:44.524704,1.00270956,.0003457,5.8825,72.5101,29.5232,333.2928,0,U,27513,999,8736,0,.7E-7,0
GALAXY 13 (HORIZONS-1),2003-044A,2026-07-20T07:07:46.595712,1.00273574,.00020895,1.5017,83.4321,39.4247,132.1575,0,U,27954,999,4690,0,.13E-5,0
INTELSAT 10-02,2004-022A,2026-07-20T01:08:55.200768,1.00272053,.00002227,0.0538,253.4772,309.5985,110.9753,0,U,28358,999,8088,0,-.14E-6,0
DIRECTV 8,2005-019A,2026-07-20T05:36:40.948128,1.00272634,.00031095,0.0192,64.5817,59.6642,138.8770,0,U,28659,999,7740,0,-.1E-7,0
GALAXY 28 (G-28),2005-022A,2026-07-20T06:09:26.998272,1.00270962,.00024374,3.3806,78.5215,37.3715,247.4043,0,U,28702,999,5230,0,-.204E-5,0
GALAXY 16 (G-16),2006-023A,2026-07-20T06:50:46.412160,1.00271658,.00027015,0.0250,139.4045,340.1404,182.1953,0,U,29236,999,7330,0,-.129E-5,0
DIRECTV 9S,2006-043A,2026-07-20T07:03:44.275680,1.00271702,.00051132,2.5042,80.5051,33.7269,188.5676,0,U,29494,999,5171,0,-.117E-5,0
GALAXY 17 (G-17),2007-016B,2026-07-20T06:52:21.256032,1.00271026,.00037602,3.0534,79.4846,38.1962,198.4396,0,U,31307,999,7013,0,-.21E-5,0
INTELSAT 11 (IS-11),2007-044B,2026-07-20T01:26:38.727744,0.99053109,.00044248,3.6490,78.2710,99.2747,123.2027,0,U,32253,999,6877,0,-.235E-5,0
HORIZONS-2,2007-063B,2026-07-20T06:01:42.456576,1.00272600,.00036339,2.6854,80.2224,19.3413,215.0883,0,U,32388,999,6814,0,-.257E-5,0
DIRECTV 11,2008-013A,2026-07-20T06:50:46.400064,1.00271427,.00000802,0.0025,191.2066,259.1433,211.2091,0,U,32729,999,4592,0,-.127E-5,0
GALAXY 18 (G-18),2008-024A,2026-07-20T06:21:11.470176,1.00273804,.00029253,0.0094,14.0767,106.0654,150.1832,0,U,32951,999,4618,0,.23E-6,0
GALAXY 19 (G-19),2008-045A,2026-07-20T06:53:52.999008,1.00271730,.00025279,0.0655,254.5331,235.4025,174.5924,0,U,33376,999,6523,0,-.141E-5,0
FM-5,2009-034A,2026-07-20T05:53:43.266624,1.00270279,.00007801,0.0420,249.2326,130.1727,280.8727,0,U,35493,999,4697,0,-.202E-5,0
INTELSAT 14 (IS-14),2009-064A,2026-07-20T07:08:41.483904,1.00272118,.00025456,0.0164,48.3096,73.2667,238.6632,0,U,36097,999,6093,0,-.275E-5,0
INTELSAT 15 (IS-15),2009-067A,2026-07-20T03:14:38.535072,1.00272438,.00022717,0.0054,15.6665,101.4132,314.6391,0,U,36106,999,4155,0,-.187E-5,0
DIRECTV 12,2009-075A,2026-07-20T05:45:49.442112,1.00272539,.00002647,0.0414,227.9653,338.3959,75.3850,0,U,36131,999,4688,0,-.105E-5,0
INTELSAT 16 (IS-16),2010-006A,2026-07-20T06:57:03.734784,1.00271179,.00026417,0.0220,307.9509,190.3938,187.7741,0,U,36397,999,5998,0,-.246E-5,0
XM-5,2010-053A,2026-07-20T07:03:49.025088,1.00272284,.00012611,0.0625,264.9333,317.1370,66.7572,0,U,37185,999,5781,0,-.25E-6,0
INTELSAT 17 (IS-17),2010-065B,2026-07-20T03:10:39.489600,1.00272739,.00025756,0.0102,95.2952,36.4198,279.8601,0,U,37238,999,5357,0,-.4E-7,0
INTELSAT 28 (IS-28),2011-016A,2026-07-20T06:08:04.628832,1.00271583,.0003902,1.8897,82.2239,42.1766,233.9417,0,U,37392,999,5361,0,-.228E-5,0
INTELSAT 18 (IS-18),2011-056A,2026-07-20T02:00:20.270880,1.00270625,.00018797,0.0360,245.6955,239.6167,22.6243,0,U,37834,999,5414,0,.5E-6,0
INTELSAT 22 (IS-22),2012-011A,2026-07-20T04:46:38.763264,1.00272094,.00018438,0.0228,65.4634,67.0495,309.2262,0,U,38098,999,751,0,-.61E-6,0
INTELSAT 19 (IS-19),2012-030A,2026-07-20T07:48:20.602080,1.00272698,.00030904,0.0162,39.5253,78.2946,103.3523,0,U,38356,999,5078,0,-.58E-6,0
INTELSAT 20 (IS-20),2012-043A,2026-07-20T03:11:24.417600,1.00267871,.00011983,0.0144,73.5881,115.8285,224.8430,0,U,38740,999,5107,0,-.26E-6,0
INTELSAT 21 (IS-21),2012-045A,2026-07-20T07:09:07.208640,1.00271607,.00017767,0.0413,246.2895,243.0938,217.9746,0,U,38749,999,5085,0,-.287E-5,0
